[{"OBJECT_NAME":"STARLINK-35967","OBJECT_ID":"2025-271T","EPOCH":"2026-03-09T11:04:56.126208","MEAN_MOTION":15.30208137,"ECCENTRICITY":0.00017515,"INCLINATION":53.1603,"RA_OF_ASC_NODE":140.8628,"ARG_OF_PERICENTER":88.7111,"MEAN_ANOMALY":271.4091,"EPHEMERIS_TYPE":0,"CLASSIFICATION_TYPE":"U","NORAD_CAT_ID":66634,"ELEMENT_SET_NO":999,"REV_AT_EPOCH":1749,"BSTAR":0.00091301825,"MEAN_MOTION_DOT":0.00026786,"MEAN_MOTION_DDOT":0},{"OBJECT_NAME":"KUIPER-00252","OBJECT_ID":"2025-301AA","EPOCH":"2026-03-09T22:00:01.999584","MEAN_MOTION":15.32961042,"ECCENTRICITY":0.00108625,"INCLINATION":51.8682,"RA_OF_ASC_NODE":64.6463,"ARG_OF_PERICENTER":55.9089,"MEAN_ANOMALY":330.8749,"EPHEMERIS_TYPE":0,"CLASSIFICATION_TYPE":"U","NORAD_CAT_ID":67157,"ELEMENT_SET_NO":999,"REV_AT_EPOCH":542,"BSTAR":-0.017504489,"MEAN_MOTION_DOT":-0.00529484,"MEAN_MOTION_DDOT":0}]
